{
    "CCSDS_OMM_VERS": "3.0",
    "COMMENT": "GENERATED VIA SPACE-TRACK.ORG API",
    "CREATION_DATE": "2025-11-24T07:26:19",
    "ORIGINATOR": "18 SPCS",
    "OBJECT_NAME": "BEIDOU 3M4",
    "OBJECT_ID": "2018-003B",
    "CENTER_NAME": "EARTH",
    "REF_FRAME": "TEME",
    "TIME_SYSTEM": "UTC",
    "MEAN_ELEMENT_THEORY": "SGP4",
    "EPOCH": "2025-11-23T15:25:14.877120",
    "MEAN_MOTION": "1.86231016",
    "ECCENTRICITY": "0.00049090",
    "INCLINATION": "54.5066",
    "RA_OF_ASC_NODE": "309.4621",
    "ARG_OF_PERICENTER": "271.4450",
    "MEAN_ANOMALY": "88.4934",
    "EPHEMERIS_TYPE": "0",
    "CLASSIFICATION_TYPE": "U",
    "NORAD_CAT_ID": "43108",
    "ELEMENT_SET_NO": "999",
    "REV_AT_EPOCH": "5353",
    "BSTAR": "0.00000000000000",
    "MEAN_MOTION_DOT": "-0.00000052",
    "MEAN_MOTION_DDOT": "0.0000000000000",
    "SEMIMAJOR_AXIS": "27906.187",
    "PERIOD": "773.233",
    "APOAPSIS": "21541.751",
    "PERIAPSIS": "21514.353",
    "OBJECT_TYPE": "PAYLOAD",
    "RCS_SIZE": "LARGE",
    "COUNTRY_CODE": "PRC",
    "LAUNCH_DATE": "2018-01-11",
    "SITE": "XSC",
    "DECAY_DATE": null,
    "FILE": "4896990",
    "GP_ID": "303366710",
    "TLE_LINE0": "0 BEIDOU 3M4",
    "TLE_LINE1": "1 43108U 18003B   25327.64253330 -.00000052  00000-0  00000+0 0  9990",
    "TLE_LINE2": "2 43108  54.5066 309.4621 0004909 271.4450  88.4934  1.86231016 53534"
}